[{"OBJECT_NAME":"SKYSAT-C6","OBJECT_ID":"2017-068F","EPOCH":"2026-03-09T21:33:49.392576","MEAN_MOTION":15.32504544,"ECCENTRICITY":0.00036369,"INCLINATION":97.44,"RA_OF_ASC_NODE":205.7173,"ARG_OF_PERICENTER":127.5085,"MEAN_ANOMALY":232.6488,"EPHEMERIS_TYPE":0,"CLASSIFICATION_TYPE":"U","NORAD_CAT_ID":42992,"ELEMENT_SET_NO":999,"REV_AT_EPOCH":46710,"BSTAR":0.00039699196,"MEAN_MOTION_DOT":0.0001239,"MEAN_MOTION_DDOT":0},{"OBJECT_NAME":"STARLINK-34752","OBJECT_ID":"2025-240H","EPOCH":"2026-03-09T10:13:08.148864","MEAN_MOTION":15.30200647,"ECCENTRICITY":0.00011088,"INCLINATION":53.1597,"RA_OF_ASC_NODE":64.3528,"ARG_OF_PERICENTER":102.6547,"MEAN_ANOMALY":257.4578,"EPHEMERIS_TYPE":0,"CLASSIFICATION_TYPE":"U","NORAD_CAT_ID":66153,"ELEMENT_SET_NO":999,"REV_AT_EPOCH":2194,"BSTAR":0.00055958175,"MEAN_MOTION_DOT":0.00016251,"MEAN_MOTION_DDOT":0}]
